[{"OBJECT_NAME":"HEAD-3A","OBJECT_ID":"2023-121A","EPOCH":"2026-03-09T23:13:19.514208","MEAN_MOTION":14.60504198,"ECCENTRICITY":0.00053162,"INCLINATION":45.0013,"RA_OF_ASC_NODE":79.5453,"ARG_OF_PERICENTER":132.961,"MEAN_ANOMALY":227.1693,"EPHEMERIS_TYPE":0,"CLASSIFICATION_TYPE":"U","NORAD_CAT_ID":57626,"ELEMENT_SET_NO":999,"REV_AT_EPOCH":13707,"BSTAR":0.00022333117,"MEAN_MOTION_DOT":9.35e-6,"MEAN_MOTION_DDOT":0},{"OBJECT_NAME":"SL-8 DEB","OBJECT_ID":"1982-051C","EPOCH":"2026-03-09T23:08:06.595872","MEAN_MOTION":14.61568638,"ECCENTRICITY":0.00023426,"INCLINATION":74.0418,"RA_OF_ASC_NODE":272.5414,"ARG_OF_PERICENTER":84.6605,"MEAN_ANOMALY":41.1825,"EPHEMERIS_TYPE":0,"CLASSIFICATION_TYPE":"U","NORAD_CAT_ID":14398,"ELEMENT_SET_NO":999,"REV_AT_EPOCH":33897,"BSTAR":0.00049925894,"MEAN_MOTION_DOT":2.451e-5,"MEAN_MOTION_DDOT":0}]
